ONEWEB-0623             
1 55164U 23004AA  25235.27242903 -.00000014  00000+0 -68115-4 0  9997
2 55164  87.9024  65.1689 0002291 105.1223 255.0162 13.17647122128350
ONEWEB-0624             
1 55165U 23004AB  25235.21653284 -.00000236  00000+0 -68636-3 0  9993
2 55165  87.8862  49.8656 0001824  91.9746 268.1592 13.12944280128976
ONEWEB-0625             
1 55166U 23004AC  25235.26230390  .00000024  00000+0  28116-4 0  9991
2 55166  87.9022  65.1678 0001791  83.6225 276.5110 13.17649665128348
ONEWEB-0626             
1 55167U 23004AD  25234.49281958  .00000061  00000+0  12388-3 0  9996
2 55167  87.9023  65.3202 0001214  85.9676 274.1594 13.17649455128246
ONEWEB-0627             
1 55168U 23004AE  25234.48100851  .00000069  00000+0  14419-3 0  9993
2 55168  87.9022  65.3241 0002030 105.3394 254.7962 13.17650664128247
ONEWEB-0628             
1 55169U 23004AF  25235.24048901  .00000326  00000+0  87016-3 0  9995
2 55169  87.8871  49.8577 0002321 104.1213 256.0174 13.12443472128958
ONEWEB-0629             
1 55170U 23004AG  25235.06402716  .00000018  00000+0  12623-4 0  9996
2 55170  87.9032  65.2002 0002121  88.1090 272.0284 13.17647294128321
ONEWEB-0631             
1 55171U 23004AH  25235.20997121 -.00000234  00000+0 -62507-3 0  9999
2 55171  87.9151  34.6069 0001436 110.0447 250.0840 13.18685972130408
ONEWEB-0709             
1 55172U 23004AJ  25234.57879130  .00000187  00000+0  49206-3 0  9994
2 55172  87.8774  80.5990 0000838  75.8194 284.3027 13.11416568126738
ONEWEB-0710             
1 55173U 23004AK  25235.23025693  .00000025  00000+0  31186-4 0  9996
2 55173  87.9023  65.1643 0001830  94.3424 265.7917 13.17649902128342
ONEWEB-0711             
1 55174U 23004AL  25235.08401811 -.00000881  00000+0 -25228-2 0  9990
2 55174  87.8779  80.4653 0002159 105.0109 255.1258 13.11422564126768
ONEWEB-0713             
1 55175U 23004AM  25234.56861039  .00000513  00000+0  14113-2 0  9996
2 55175  87.8776  80.5760 0001838  94.3431 265.7907 13.11416823126687
ONEWEB-0715             
1 55176U 23004AN  25234.48722813  .00000586  00000+0  16163-2 0  9991
2 55176  87.8775  80.5927 0001421  90.1212 270.0079 13.11416239126715
ONEWEB-0716             
1 55177U 23004AP  25235.22349084  .00000054  00000+0  10602-3 0  9993
2 55177  87.9024  65.1655 0001820  82.4504 277.6834 13.17649177128340
ONEWEB-0717             
1 55178U 23004AQ  25235.05472789 -.00000229  00000+0 -62191-3 0  9990
2 55178  87.9029  65.1598 0002032 111.4298 248.7050 13.17648782128374
ONEWEB-0719             
1 55179U 23004AR  25235.21675247  .00000003  00000+0 -25266-4 0  9995
2 55179  87.9032  65.1104 0001948  84.9313 275.2041 13.17649884128345
