[{"OBJECT_NAME":"ONEWEB-0623","OBJECT_ID":"2023-004AA","EPOCH":"2025-08-23T06:32:17.868192","MEAN_MOTION":13.17647122,"ECCENTRICITY":0.00022916,"INCLINATION":87.9024,"RA_OF_ASC_NODE":65.1689,"ARG_OF_PERICENTER":105.1223,"MEAN_ANOMALY":255.0162,"EPHEMERIS_TYPE":0,"CLASSIFICATION_TYPE":"U","NORAD_CAT_ID":55164,"ELEMENT_SET_NO":999,"REV_AT_EPOCH":12835,"BSTAR":-6.8115129e-5,"MEAN_MOTION_DOT":-1.4e-7,"MEAN_MOTION_DDOT":0},{"OBJECT_NAME":"ONEWEB-0624","OBJECT_ID":"2023-004AB","EPOCH":"2025-08-23T05:11:48.437376","MEAN_MOTION":13.1294428,"ECCENTRICITY":0.0001824,"INCLINATION":87.8862,"RA_OF_ASC_NODE":49.8656,"ARG_OF_PERICENTER":91.9746,"MEAN_ANOMALY":268.1592,"EPHEMERIS_TYPE":0,"CLASSIFICATION_TYPE":"U","NORAD_CAT_ID":55165,"ELEMENT_SET_NO":999,"REV_AT_EPOCH":12897,"BSTAR":-0.00068635953,"MEAN_MOTION_DOT":-2.36e-6,"MEAN_MOTION_DDOT":0},{"OBJECT_NAME":"ONEWEB-0625","OBJECT_ID":"2023-004AC","EPOCH":"2025-08-23T06:17:43.056960","MEAN_MOTION":13.17649665,"ECCENTRICITY":0.00017914,"INCLINATION":87.9022,"RA_OF_ASC_NODE":65.1678,"ARG_OF_PERICENTER":83.6225,"MEAN_ANOMALY":276.511,"EPHEMERIS_TYPE":0,"CLASSIFICATION_TYPE":"U","NORAD_CAT_ID":55166,"ELEMENT_SET_NO":999,"REV_AT_EPOCH":12834,"BSTAR":2.8115815e-5,"MEAN_MOTION_DOT":2.4e-7,"MEAN_MOTION_DDOT":0},{"OBJECT_NAME":"ONEWEB-0626","OBJECT_ID":"2023-004AD","EPOCH":"2025-08-22T11:49:39.611712","MEAN_MOTION":13.17649455,"ECCENTRICITY":0.00012147,"INCLINATION":87.9023,"RA_OF_ASC_NODE":65.3202,"ARG_OF_PERICENTER":85.9676,"MEAN_ANOMALY":274.1594,"EPHEMERIS_TYPE":0,"CLASSIFICATION_TYPE":"U","NORAD_CAT_ID":55167,"ELEMENT_SET_NO":999,"REV_AT_EPOCH":12824,"BSTAR":0.0001238802,"MEAN_MOTION_DOT":6.1e-7,"MEAN_MOTION_DDOT":0},{"OBJECT_NAME":"ONEWEB-0627","OBJECT_ID":"2023-004AE","EPOCH":"2025-08-22T11:32:39.135264","MEAN_MOTION":13.17650664,"ECCENTRICITY":0.00020305,"INCLINATION":87.9022,"RA_OF_ASC_NODE":65.3241,"ARG_OF_PERICENTER":105.3394,"MEAN_ANOMALY":254.7962,"EPHEMERIS_TYPE":0,"CLASSIFICATION_TYPE":"U","NORAD_CAT_ID":55168,"ELEMENT_SET_NO":999,"REV_AT_EPOCH":12824,"BSTAR":0.00014418565,"MEAN_MOTION_DOT":6.9e-7,"MEAN_MOTION_DDOT":0},{"OBJECT_NAME":"ONEWEB-0628","OBJECT_ID":"2023-004AF","EPOCH":"2025-08-23T05:46:18.250464","MEAN_MOTION":13.12443472,"ECCENTRICITY":0.00023219,"INCLINATION":87.8871,"RA_OF_ASC_NODE":49.8577,"ARG_OF_PERICENTER":104.1213,"MEAN_ANOMALY":256.0174,"EPHEMERIS_TYPE":0,"CLASSIFICATION_TYPE":"U","NORAD_CAT_ID":55169,"ELEMENT_SET_NO":999,"REV_AT_EPOCH":12895,"BSTAR":0.00087015691,"MEAN_MOTION_DOT":3.26e-6,"MEAN_MOTION_DDOT":0},{"OBJECT_NAME":"ONEWEB-0629","OBJECT_ID":"2023-004AG","EPOCH":"2025-08-23T01:32:11.946624","MEAN_MOTION":13.17647294,"ECCENTRICITY":0.00021219,"INCLINATION":87.9032,"RA_OF_ASC_NODE":65.2002,"ARG_OF_PERICENTER":88.109,"MEAN_ANOMALY":272.0284,"EPHEMERIS_TYPE":0,"CLASSIFICATION_TYPE":"U","NORAD_CAT_ID":55170,"ELEMENT_SET_NO":999,"REV_AT_EPOCH":12832,"BSTAR":1.2623417e-5,"MEAN_MOTION_DOT":1.8e-7,"MEAN_MOTION_DDOT":0},{"OBJECT_NAME":"ONEWEB-0631","OBJECT_ID":"2023-004AH","EPOCH":"2025-08-23T05:02:21.512544","MEAN_MOTION":13.18685972,"ECCENTRICITY":0.00014366,"INCLINATION":87.9151,"RA_OF_ASC_NODE":34.6069,"ARG_OF_PERICENTER":110.0447,"MEAN_ANOMALY":250.084,"EPHEMERIS_TYPE":0,"CLASSIFICATION_TYPE":"U","NORAD_CAT_ID":55171,"ELEMENT_SET_NO":999,"REV_AT_EPOCH":13040,"BSTAR":-0.00062507235,"MEAN_MOTION_DOT":-2.34e-6,"MEAN_MOTION_DDOT":0},{"OBJECT_NAME":"ONEWEB-0709","OBJECT_ID":"2023-004AJ","EPOCH":"2025-08-22T13:53:27.568320","MEAN_MOTION":13.11416568,"ECCENTRICITY":8.382e-5,"INCLINATION":87.8774,"RA_OF_ASC_NODE":80.599,"ARG_OF_PERICENTER":75.8194,"MEAN_ANOMALY":284.3027,"EPHEMERIS_TYPE":0,"CLASSIFICATION_TYPE":"U","NORAD_CAT_ID":55172,"ELEMENT_SET_NO":999,"REV_AT_EPOCH":12673,"BSTAR":0.0004920631,"MEAN_MOTION_DOT":1.87e-6,"MEAN_MOTION_DDOT":0},{"OBJECT_NAME":"ONEWEB-0710","OBJECT_ID":"2023-004AK","EPOCH":"2025-08-23T05:31:34.198752","MEAN_MOTION":13.17649902,"ECCENTRICITY":0.00018309,"INCLINATION":87.9023,"RA_OF_ASC_NODE":65.1643,"ARG_OF_PERICENTER":94.3424,"MEAN_ANOMALY":265.7917,"EPHEMERIS_TYPE":0,"CLASSIFICATION_TYPE":"U","NORAD_CAT_ID":55173,"ELEMENT_SET_NO":999,"REV_AT_EPOCH":12834,"BSTAR":3.1186243e-5,"MEAN_MOTION_DOT":2.5e-7,"MEAN_MOTION_DDOT":0},{"OBJECT_NAME":"ONEWEB-0711","OBJECT_ID":"2023-004AL","EPOCH":"2025-08-23T02:00:59.164704","MEAN_MOTION":13.11422564,"ECCENTRICITY":0.00021591,"INCLINATION":87.8779,"RA_OF_ASC_NODE":80.4653,"ARG_OF_PERICENTER":105.0109,"MEAN_ANOMALY":255.1258,"EPHEMERIS_TYPE":0,"CLASSIFICATION_TYPE":"U","NORAD_CAT_ID":55174,"ELEMENT_SET_NO":999,"REV_AT_EPOCH":12676,"BSTAR":-0.0025227572,"MEAN_MOTION_DOT":-8.81e-6,"MEAN_MOTION_DDOT":0},{"OBJECT_NAME":"ONEWEB-0713","OBJECT_ID":"2023-004AM","EPOCH":"2025-08-22T13:38:47.937696","MEAN_MOTION":13.11416823,"ECCENTRICITY":0.00018387,"INCLINATION":87.8776,"RA_OF_ASC_NODE":80.576,"ARG_OF_PERICENTER":94.3431,"MEAN_ANOMALY":265.7907,"EPHEMERIS_TYPE":0,"CLASSIFICATION_TYPE":"U","NORAD_CAT_ID":55175,"ELEMENT_SET_NO":999,"REV_AT_EPOCH":12668,"BSTAR":0.0014113274,"MEAN_MOTION_DOT":5.13e-6,"MEAN_MOTION_DDOT":0},{"OBJECT_NAME":"ONEWEB-0715","OBJECT_ID":"2023-004AN","EPOCH":"2025-08-22T11:41:36.510432","MEAN_MOTION":13.11416239,"ECCENTRICITY":0.00014214,"INCLINATION":87.8775,"RA_OF_ASC_NODE":80.5927,"ARG_OF_PERICENTER":90.1212,"MEAN_ANOMALY":270.0079,"EPHEMERIS_TYPE":0,"CLASSIFICATION_TYPE":"U","NORAD_CAT_ID":55176,"ELEMENT_SET_NO":999,"REV_AT_EPOCH":12671,"BSTAR":0.0016162805,"MEAN_MOTION_DOT":5.86e-6,"MEAN_MOTION_DDOT":0},{"OBJECT_NAME":"ONEWEB-0716","OBJECT_ID":"2023-004AP","EPOCH":"2025-08-23T05:21:49.608576","MEAN_MOTION":13.17649177,"ECCENTRICITY":0.00018205,"INCLINATION":87.9024,"RA_OF_ASC_NODE":65.1655,"ARG_OF_PERICENTER":82.4504,"MEAN_ANOMALY":277.6834,"EPHEMERIS_TYPE":0,"CLASSIFICATION_TYPE":"U","NORAD_CAT_ID":55177,"ELEMENT_SET_NO":999,"REV_AT_EPOCH":12834,"BSTAR":0.00010602183,"MEAN_MOTION_DOT":5.4e-7,"MEAN_MOTION_DDOT":0},{"OBJECT_NAME":"ONEWEB-0717","OBJECT_ID":"2023-004AQ","EPOCH":"2025-08-23T01:18:48.489696","MEAN_MOTION":13.17648782,"ECCENTRICITY":0.00020327,"INCLINATION":87.9029,"RA_OF_ASC_NODE":65.1598,"ARG_OF_PERICENTER":111.4298,"MEAN_ANOMALY":248.705,"EPHEMERIS_TYPE":0,"CLASSIFICATION_TYPE":"U","NORAD_CAT_ID":55178,"ELEMENT_SET_NO":999,"REV_AT_EPOCH":12837,"BSTAR":-0.00062190875,"MEAN_MOTION_DOT":-2.29e-6,"MEAN_MOTION_DDOT":0},{"OBJECT_NAME":"ONEWEB-0719","OBJECT_ID":"2023-004AR","EPOCH":"2025-08-23T05:12:07.413408","MEAN_MOTION":13.17649884,"ECCENTRICITY":0.00019482,"INCLINATION":87.9032,"RA_OF_ASC_NODE":65.1104,"ARG_OF_PERICENTER":84.9313,"MEAN_ANOMALY":275.2041,"EPHEMERIS_TYPE":0,"CLASSIFICATION_TYPE":"U","NORAD_CAT_ID":55179,"ELEMENT_SET_NO":999,"REV_AT_EPOCH":12834,"BSTAR":-2.5266162e-5,"MEAN_MOTION_DOT":3.0e-8,"MEAN_MOTION_DDOT":0}]
